{"type": "FeatureCollection", "features": [ {"type": "Feature", "properties": {"norad_id": 37867, "name": "COSMOS 2476 (744)", "group": "gnss", "lat": -15.35482790474144, "lon": -93.37405465966867, "alt_km": 19083.21720502903, "timestamp": "2025-12-08T05:48:09.277635+00:00", "meta": {"OBJECT_NAME": "COSMOS 2476 (744)", "OBJECT_ID": "2011-064A", "EPOCH": "2025-12-07T12:05:38.490144", "MEAN_MOTION": 2.13101284, "ECCENTRICITY": 0.0024092, "INCLINATION": 65.1595, "RA_OF_ASC_NODE": 79.3486, "ARG_OF_PERICENTER": 233.8995, "MEAN_ANOMALY": 117.1284, "EPHEMERIS_TYPE": 0, "CLASSIFICATION_TYPE": "U", "NORAD_CAT_ID": 37867, "ELEMENT_SET_NO": 999, "REV_AT_EPOCH": 10967, "BSTAR": 0, "MEAN_MOTION_DOT": -1.2e-07, "MEAN_MOTION_DDOT": 0}, "tle": {"line1": "1 37867U 11064A   25341.50391771 -.00000012  00000+0  00000+0 0  9993", "line2": "2 37867  65.1595  79.3486 0024092 233.8995 117.1284  2.13101284109676"}}, "geometry": {"type": "Point", "coordinates": [-93.37405465966867, -15.35482790474144]}}, {"type": "Feature", "properties": {"norad_id": 37868, "name": "COSMOS 2477 (745)", "group": "gnss", "lat": 16.40062923007452, "lon": 87.22863671436652, "alt_km": 19171.703379004706, "timestamp": "2025-12-08T05:48:09.277647+00:00", "meta": {"OBJECT_NAME": "COSMOS 2477 (745)", "OBJECT_ID": "2011-064B", "EPOCH": "2025-12-07T23:52:45.427008", "MEAN_MOTION": 2.13102702, "ECCENTRICITY": 0.00211763, "INCLINATION": 65.1661, "RA_OF_ASC_NODE": 79.4096, "ARG_OF_PERICENTER": 234.5496, "MEAN_ANOMALY": 314.1036, "EPHEMERIS_TYPE": 0, "CLASSIFICATION_TYPE": "U", "NORAD_CAT_ID": 37868, "ELEMENT_SET_NO": 999, "REV_AT_EPOCH": 10968, "BSTAR": 0, "MEAN_MOTION_DOT": -1.2e-07, "MEAN_MOTION_DDOT": 0}, "tle": {"line1": "1 37868U 11064B   25341.99497022 -.00000012  00000+0  00000+0 0  9993", "line2": "2 37868  65.1661  79.4096 0021176 234.5496 314.1036  2.13102702109684"}}, "geometry": {"type": "Point", "coordinates": [87.22863671436652, 16.40062923007452]}}, {"type": "Feature", "properties": {"norad_id": 37869, "name": "COSMOS 2475 (743)", "group": "gnss", "lat": -23.227570077360863, "lon": 67.98711228997627, "alt_km": 19128.23840686586, "timestamp": "2025-12-08T05:48:09.277659+00:00", "meta": {"OBJECT_NAME": "COSMOS 2475 (743)", "OBJECT_ID": "2011-064C", "EPOCH": "2025-12-07T08:11:48.953184", "MEAN_MOTION": 2.13101364, "ECCENTRICITY": 0.00262336, "INCLINATION": 65.1729, "RA_OF_ASC_NODE": 79.4516, "ARG_OF_PERICENTER": 248.5614, "MEAN_ANOMALY": 114.7737, "EPHEMERIS_TYPE": 0, "CLASSIFICATION_TYPE": "U", "NORAD_CAT_ID": 37869, "ELEMENT_SET_NO": 999, "REV_AT_EPOCH": 10968, "BSTAR": 0, "MEAN_MOTION_DOT": -1.3e-07, "MEAN_MOTION_DDOT": 0}, "tle": {"line1": "1 37869U 11064C   25341.34153881 -.00000013  00000+0  00000+0 0  9996", "line2": "2 37869  65.1729  79.4516 0026233 248.5614 114.7737  2.13101364109688"}}, "geometry": {"type": "Point", "coordinates": [67.98711228997627, -23.227570077360863]}}, {"type": "Feature", "properties": {"norad_id": 37948, "name": "BEIDOU-2 IGSO-5 (C10)", "group": "gnss", "lat": -11.726864699956417, "lon": -96.85746336564361, "alt_km": 36025.63279643243, "timestamp": "2025-12-08T05:48:09.277671+00:00", "meta": {"OBJECT_NAME": "BEIDOU-2 IGSO-5 (C10)", "OBJECT_ID": "2011-073A", "EPOCH": "2025-12-07T19:12:14.882400", "MEAN_MOTION": 1.00291658, "ECCENTRICITY": 0.01104068, "INCLINATION": 48.0298, "RA_OF_ASC_NODE": 273.9181, "ARG_OF_PERICENTER": 222.1784, "MEAN_ANOMALY": 321.4594, "EPHEMERIS_TYPE": 0, "CLASSIFICATION_TYPE": "U", "NORAD_CAT_ID": 37948, "ELEMENT_SET_NO": 999, "REV_AT_EPOCH": 5121, "BSTAR": 0, "MEAN_MOTION_DOT": -1.91e-06, "MEAN_MOTION_DDOT": 0}, "tle": {"line1": "1 37948U 11073A   25341.80017225 -.00000191  00000+0  00000+0 0  9993", "line2": "2 37948  48.0298 273.9181 0110406 222.1784 321.4594  1.00291658 51212"}}, "geometry": {"type": "Point", "coordinates": [-96.85746336564361, -11.726864699956417]}}, {"type": "Feature", "properties": {"norad_id": 37951, "name": "LUCH 5A (SDCM/PRN 140)", "group": "gnss", "lat": -7.985370783574731, "lon": -28.76922603252982, "alt_km": 35781.02794988891, "timestamp": "2025-12-08T05:48:09.277691+00:00", "meta": {"OBJECT_NAME": "LUCH 5A (SDCM/PRN 140)", "OBJECT_ID": "2011-074B", "EPOCH": "2025-12-07T14:25:40.413216", "MEAN_MOTION": 1.00273905, "ECCENTRICITY": 0.00058405, "INCLINATION": 8.2666, "RA_OF_ASC_NODE": 76.66, "ARG_OF_PERICENTER": 177.4719, "MEAN_ANOMALY": 205.9228, "EPHEMERIS_TYPE": 0, "CLASSIFICATION_TYPE": "U", "NORAD_CAT_ID": 37951, "ELEMENT_SET_NO": 999, "REV_AT_EPOCH": 5113, "BSTAR": 0, "MEAN_MOTION_DOT": -4.8e-07, "MEAN_MOTION_DDOT": 0}, "tle": {"line1": "1 37951U 11074B   25341.60116219 -.00000048  00000+0  00000+0 0  9990", "line2": "2 37951   8.2666  76.6600 0005840 177.4719 205.9228  1.00273905 51138"}}, "geometry": {"type": "Point", "coordinates": [-28.76922603252982, -7.985370783574731]}}, {"type": "Feature", "properties": {"norad_id": 38091, "name": "BEIDOU-2 G5 (C05)", "group": "gnss", "lat": 1.427178501915698, "lon": -137.07743169964428, "alt_km": 35770.911175519395, "timestamp": "2025-12-08T05:48:09.277704+00:00", "meta": {"OBJECT_NAME": "BEIDOU-2 G5 (C05)", "OBJECT_ID": "2012-008A", "EPOCH": "2025-12-07T22:49:38.694720", "MEAN_MOTION": 1.00273933, "ECCENTRICITY": 0.00125361, "INCLINATION": 3.0971, "RA_OF_ASC_NODE": 70.7238, "ARG_OF_PERICENTER": 226.7422, "MEAN_ANOMALY": 180.645, "EPHEMERIS_TYPE": 0, "CLASSIFICATION_TYPE": "U", "NORAD_CAT_ID": 38091, "ELEMENT_SET_NO": 999, "REV_AT_EPOCH": 5045, "BSTAR": 0, "MEAN_MOTION_DOT": 5.8e-07, "MEAN_MOTION_DDOT": 0}, "tle": {"line1": "1 38091U 12008A   25341.95114230  .00000058  00000+0  00000+0 0  9993", "line2": "2 38091   3.0971  70.7238 0012536 226.7422 180.6450  1.00273933 50458"}}, "geometry": {"type": "Point", "coordinates": [-137.07743169964428, 1.427178501915698]}}, {"type": "Feature", "properties": {"norad_id": 38250, "name": "BEIDOU-2 M3 (C11)", "group": "gnss", "lat": 31.789561750962843, "lon": 106.50075635203882, "alt_km": 21571.23566352189, "timestamp": "2025-12-08T05:48:09.277719+00:00", "meta": {"OBJECT_NAME": "BEIDOU-2 M3 (C11)", "OBJECT_ID": "2012-018A", "EPOCH": "2025-12-05T21:12:32.531040", "MEAN_MOTION": 1.86229708, "ECCENTRICITY": 0.00244284, "INCLINATION": 55.926, "RA_OF_ASC_NODE": 311.388, "ARG_OF_PERICENTER": 273.8805, "MEAN_ANOMALY": 85.8231, "EPHEMERIS_TYPE": 0, "CLASSIFICATION_TYPE": "U", "NORAD_CAT_ID": 38250, "ELEMENT_SET_NO": 999, "REV_AT_EPOCH": 9234, "BSTAR": 0, "MEAN_MOTION_DOT": -7e-07, "MEAN_MOTION_DDOT": 0}, "tle": {"line1": "1 38250U 12018A   25339.88370985 -.00000070  00000+0  00000+0 0  9996", "line2": "2 38250  55.9260 311.3880 0024428 273.8805  85.8231  1.86229708 92342"}}, "geometry": {"type": "Point", "coordinates": [106.50075635203882, 31.789561750962843]}}, {"type": "Feature", "properties": {"norad_id": 38251, "name": "BEIDOU-2 M4 (C12)", "group": "gnss", "lat": -5.123143930394974, "lon": 134.0079795215165, "alt_km": 21530.013770182646, "timestamp": "2025-12-08T05:48:09.277744+00:00", "meta": {"OBJECT_NAME": "BEIDOU-2 M4 (C12)", "OBJECT_ID": "2012-018B", "EPOCH": "2025-12-06T21:21:07.920864", "MEAN_MOTION": 1.86229417, "ECCENTRICITY": 0.00155481, "INCLINATION": 55.8267, "RA_OF_ASC_NODE": 310.5837, "ARG_OF_PERICENTER": 277.2746, "MEAN_ANOMALY": 82.5325, "EPHEMERIS_TYPE": 0, "CLASSIFICATION_TYPE": "U", "NORAD_CAT_ID": 38251, "ELEMENT_SET_NO": 999, "REV_AT_EPOCH": 9236, "BSTAR": 0, "MEAN_MOTION_DOT": -7e-07, "MEAN_MOTION_DDOT": 0}, "tle": {"line1": "1 38251U 12018B   25340.88967501 -.00000070  00000+0  00000+0 0  9995", "line2": "2 38251  55.8267 310.5837 0015548 277.2746  82.5325  1.86229417 92364"}}, "geometry": {"type": "Point", "coordinates": [134.0079795215165, -5.123143930394974]}}, {"type": "Feature", "properties": {"norad_id": 38652, "name": "SES-5 (EGNOS/PRN 136)", "group": "gnss", "lat": -0.04559790594038169, "lon": 169.24768191839456, "alt_km": 35782.53969347056, "timestamp": "2025-12-08T05:48:09.277756+00:00", "meta": {"OBJECT_NAME": "SES-5 (EGNOS/PRN 136)", "OBJECT_ID": "2012-036A", "EPOCH": "2025-12-07T22:13:07.845600", "MEAN_MOTION": 1.0027828, "ECCENTRICITY": 0.00023236, "INCLINATION": 0.0584, "RA_OF_ASC_NODE": 304.5243, "ARG_OF_PERICENTER": 304.6358, "MEAN_ANOMALY": 166.0448, "EPHEMERIS_TYPE": 0, "CLASSIFICATION_TYPE": "U", "NORAD_CAT_ID": 38652, "ELEMENT_SET_NO": 999, "REV_AT_EPOCH": 4254, "BSTAR": 0, "MEAN_MOTION_DOT": 3.8e-07, "MEAN_MOTION_DDOT": 0}, "tle": {"line1": "1 38652U 12036A   25341.92578525  .00000038  00000+0  00000+0 0  9993", "line2": "2 38652   0.0584 304.5243 0002323 304.6358 166.0448  1.00278280 42545"}}, "geometry": {"type": "Point", "coordinates": [169.24768191839456, -0.04559790594038169]}}, {"type": "Feature", "properties": {"norad_id": 38775, "name": "BEIDOU-2 M6 (C14)", "group": "gnss", "lat": 16.82758963118433, "lon": 80.81997244324212, "alt_km": 21500.898857595534, "timestamp": "2025-12-08T05:48:09.277768+00:00", "meta": {"OBJECT_NAME": "BEIDOU-2 M6 (C14)", "OBJECT_ID": "2012-050B", "EPOCH": "2025-12-06T01:31:40.709568", "MEAN_MOTION": 1.86230702, "ECCENTRICITY": 0.00109743, "INCLINATION": 56.3728, "RA_OF_ASC_NODE": 69.289, "ARG_OF_PERICENTER": 345.7667, "MEAN_ANOMALY": 14.2153, "EPHEMERIS_TYPE": 0, "CLASSIFICATION_TYPE": "U", "NORAD_CAT_ID": 38775, "ELEMENT_SET_NO": 999, "REV_AT_EPOCH": 8971, "BSTAR": 0, "MEAN_MOTION_DOT": -4.7e-07, "MEAN_MOTION_DDOT": 0}, "tle": {"line1": "1 38775U 12050B   25340.06366562 -.00000047  00000+0  00000+0 0  9996", "line2": "2 38775  56.3728  69.2890 0010974 345.7667  14.2153  1.86230702 89716"}}, "geometry": {"type": "Point", "coordinates": [80.81997244324212, 16.82758963118433]}}]}